{
  "type": "FeatureCollection",
  "features": [
    {
      "type": "Feature",
      "properties": {
        "norad_id": 66941,
        "name": "STARLINK-36088",
        "group": "last-30-days",
        "lat": -22.048058819442907,
        "lon": -144.8612898889438,
        "alt_km": 332.6210239633947,
        "timestamp": "2025-12-19T06:59:42.652303+00:00",
        "meta_object_name": "STARLINK-36088",
        "meta_object_id": "2025-286S",
        "meta_epoch": "2025-12-18T22:00:00.999936",
        "meta_mean_motion": 15.81618817,
        "meta_eccentricity": 8.674e-05,
        "meta_inclination": 53.1557,
        "meta_ra_of_asc_node": 19.3388,
        "meta_arg_of_pericenter": 86.0574,
        "meta_mean_anomaly": 147.3587,
        "meta_ephemeris_type": 0,
        "meta_classification_type": "U",
        "meta_norad_cat_id": 66941,
        "meta_element_set_no": 999,
        "meta_rev_at_epoch": 298,
        "meta_bstar": -0.0074894435,
        "meta_mean_motion_dot": -0.01340928,
        "meta_mean_motion_ddot": 0,
        "tle_line1": "1 66941U 25286S   25352.91667824 -.01340928  00000+0 -74894-2 0  9991",
        "tle_line2": "2 66941  53.1557  19.3388 0000867  86.0574 147.3587 15.81618817  2987"
      },
      "geometry": {
        "type": "Point",
        "coordinates": [
          -144.8612898889438,
          -22.048058819442907
        ]
      }
    },
    {
      "type": "Feature",
      "properties": {
        "norad_id": 66942,
        "name": "STARLINK-36100",
        "group": "last-30-days",
        "lat": -26.865545368672173,
        "lon": -140.2291639846539,
        "alt_km": 333.0923953174015,
        "timestamp": "2025-12-19T06:59:42.652313+00:00",
        "meta_object_name": "STARLINK-36100",
        "meta_object_id": "2025-286T",
        "meta_epoch": "2025-12-18T22:00:00.999936",
        "meta_mean_motion": 15.81623774,
        "meta_eccentricity": 6.605e-05,
        "meta_inclination": 53.1556,
        "meta_ra_of_asc_node": 19.3256,
        "meta_arg_of_pericenter": 76.3763,
        "meta_mean_anomaly": 163.4693,
        "meta_ephemeris_type": 0,
        "meta_classification_type": "U",
        "meta_norad_cat_id": 66942,
        "meta_element_set_no": 999,
        "meta_rev_at_epoch": 291,
        "meta_bstar": -0.007674942,
        "meta_mean_motion_dot": -0.01396836,
        "meta_mean_motion_ddot": 0,
        "tle_line1": "1 66942U 25286T   25352.91667824 -.01396836  00000+0 -76749-2 0  9992",
        "tle_line2": "2 66942  53.1556  19.3256 0000660  76.3763 163.4693 15.81623774  2912"
      },
      "geometry": {
        "type": "Point",
        "coordinates": [
          -140.2291639846539,
          -26.865545368672173
        ]
      }
    },
    {
      "type": "Feature",
      "properties": {
        "norad_id": 66943,
        "name": "STARLINK-36109",
        "group": "last-30-days",
        "lat": -28.61845855683958,
        "lon": -138.40778498824847,
        "alt_km": 333.2193095644052,
        "timestamp": "2025-12-19T06:59:42.652325+00:00",
        "meta_object_name": "STARLINK-36109",
        "meta_object_id": "2025-286U",
        "meta_epoch": "2025-12-18T22:00:00.999936",
        "meta_mean_motion": 15.81606816,
        "meta_eccentricity": 6.721e-05,
        "meta_inclination": 53.1554,
        "meta_ra_of_asc_node": 19.3202,
        "meta_arg_of_pericenter": 94.8002,
        "meta_mean_anomaly": 147.4703,
        "meta_ephemeris_type": 0,
        "meta_classification_type": "U",
        "meta_norad_cat_id": 66943,
        "meta_element_set_no": 999,
        "meta_rev_at_epoch": 291,
        "meta_bstar": -0.0078479331,
        "meta_mean_motion_dot": -0.01423793,
        "meta_mean_motion_ddot": 0,
        "tle_line1": "1 66943U 25286U   25352.91667824 -.01423793  00000+0 -78479-2 0  9998",
        "tle_line2": "2 66943  53.1554  19.3202 0000672  94.8002 147.4703 15.81606816  2918"
      },
      "geometry": {
        "type": "Point",
        "coordinates": [
          -138.40778498824847,
          -28.61845855683958
        ]
      }
    },
    {
      "type": "Feature",
      "properties": {
        "norad_id": 66944,
        "name": "STARLINK-36112",
        "group": "last-30-days",
        "lat": -30.132291761980422,
        "lon": -136.76276330227626,
        "alt_km": 333.4602644323422,
        "timestamp": "2025-12-19T06:59:42.652335+00:00",
        "meta_object_name": "STARLINK-36112",
        "meta_object_id": "2025-286V",
        "meta_epoch": "2025-12-18T22:00:00.999936",
        "meta_mean_motion": 15.81609876,
        "meta_eccentricity": 8.237e-05,
        "meta_inclination": 53.1553,
        "meta_ra_of_asc_node": 19.3158,
        "meta_arg_of_pericenter": 90.6981,
        "meta_mean_anomaly": 153.6668,
        "meta_ephemeris_type": 0,
        "meta_classification_type": "U",
        "meta_norad_cat_id": 66944,
        "meta_element_set_no": 999,
        "meta_rev_at_epoch": 298,
        "meta_bstar": -0.0079456282,
        "meta_mean_motion_dot": -0.01439781,
        "meta_mean_motion_ddot": 0,
        "tle_line1": "1 66944U 25286V   25352.91667824 -.01439781  00000+0 -79456-2 0  9999",
        "tle_line2": "2 66944  53.1553  19.3158 0000823  90.6981 153.6668 15.81609876  2981"
      },
      "geometry": {
        "type": "Point",
        "coordinates": [
          -136.76276330227626,
          -30.132291761980422
        ]
      }
    },
    {
      "type": "Feature",
      "properties": {
        "norad_id": 66945,
        "name": "STARLINK-36110",
        "group": "last-30-days",
        "lat": -31.80295146992211,
        "lon": -134.8589096376023,
        "alt_km": 333.7189542722317,
        "timestamp": "2025-12-19T06:59:42.652344+00:00",
        "meta_object_name": "STARLINK-36110",
        "meta_object_id": "2025-286W",
        "meta_epoch": "2025-12-18T22:00:00.999936",
        "meta_mean_motion": 15.81595118,
        "meta_eccentricity": 7.985e-05,
        "meta_inclination": 53.1551,
        "meta_ra_of_asc_node": 19.3108,
        "meta_arg_of_pericenter": 87.2861,
        "meta_mean_anomaly": 159.4591,
        "meta_ephemeris_type": 0,
        "meta_classification_type": "U",
        "meta_norad_cat_id": 66945,
        "meta_element_set_no": 999,
        "meta_rev_at_epoch": 298,
        "meta_bstar": -0.0081341231,
        "meta_mean_motion_dot": -0.01469057,
        "meta_mean_motion_ddot": 0,
        "tle_line1": "1 66945U 25286W   25352.91667824 -.01469057  00000+0 -81341-2 0  9995",
        "tle_line2": "2 66945  53.1551  19.3108 0000798  87.2861 159.4591 15.81595118  2987"
      },
      "geometry": {
        "type": "Point",
        "coordinates": [
          -134.8589096376023,
          -31.80295146992211
        ]
      }
    },
    {
      "type": "Feature",
      "properties": {
        "norad_id": 66946,
        "name": "STARLINK-36115",
        "group": "last-30-days",
        "lat": -33.31857125219182,
        "lon": -133.04061136646337,
        "alt_km": 333.9085086249761,
        "timestamp": "2025-12-19T06:59:42.652354+00:00",
        "meta_object_name": "STARLINK-36115",
        "meta_object_id": "2025-286X",
        "meta_epoch": "2025-12-18T22:00:00.999936",
        "meta_mean_motion": 15.81590287,
        "meta_eccentricity": 8.3e-05,
        "meta_inclination": 53.1552,
        "meta_ra_of_asc_node": 19.3062,
        "meta_arg_of_pericenter": 86.3094,
        "meta_mean_anomaly": 162.6143,
        "meta_ephemeris_type": 0,
        "meta_classification_type": "U",
        "meta_norad_cat_id": 66946,
        "meta_element_set_no": 999,
        "meta_rev_at_epoch": 298,
        "meta_bstar": -0.0082490782,
        "meta_mean_motion_dot": -0.01487096,
        "meta_mean_motion_ddot": 0,
        "tle_line1": "1 66946U 25286X   25352.91667824 -.01487096  00000+0 -82491-2 0  9996",
        "tle_line2": "2 66946  53.1552  19.3062 0000830  86.3094 162.6143 15.81590287  2984"
      },
      "geometry": {
        "type": "Point",
        "coordinates": [
          -133.04061136646337,
          -33.31857125219182
        ]
      }
    },
    {
      "type": "Feature",
      "properties": {
        "norad_id": 66947,
        "name": "STARLINK-36089",
        "group": "last-30-days",
        "lat": -36.36891897201658,
        "lon": -129.06285622552937,
        "alt_km": 334.38143181695614,
        "timestamp": "2025-12-19T06:59:42.652365+00:00",
        "meta_object_name": "STARLINK-36089",
        "meta_object_id": "2025-286Y",
        "meta_epoch": "2025-12-18T22:00:00.999936",
        "meta_mean_motion": 15.8155312,
        "meta_eccentricity": 0.00010842,
        "meta_inclination": 53.1551,
        "meta_ra_of_asc_node": 19.2967,
        "meta_arg_of_pericenter": 91.0752,
        "meta_mean_anomaly": 162.3908,
        "meta_ephemeris_type": 0,
        "meta_classification_type": "U",
        "meta_norad_cat_id": 66947,
        "meta_element_set_no": 999,
        "meta_rev_at_epoch": 298,
        "meta_bstar": -0.0084192481,
        "meta_mean_motion_dot": -0.01511935,
        "meta_mean_motion_ddot": 0,
        "tle_line1": "1 66947U 25286Y   25352.91667824 -.01511935  00000+0 -84192-2 0  9997",
        "tle_line2": "2 66947  53.1551  19.2967 0001084  91.0752 162.3908 15.81553120  2984"
      },
      "geometry": {
        "type": "Point",
        "coordinates": [
          -129.06285622552937,
          -36.36891897201658
        ]
      }
    }
  ]
}